{
  "type": "FeatureCollection",
  "features": [
    {
      "type": "Feature",
      "properties": {
        "norad_id": 34492,
        "name": "IRIDIUM 33 DEB",
        "group": "iridium-33-debris",
        "lat": -69.67217041300022,
        "lon": -32.8277752068387,
        "alt_km": 701.2573225524729,
        "timestamp": "2025-12-07T11:27:50.391401+00:00",
        "meta_object_name": "IRIDIUM 33 DEB",
        "meta_object_id": "1997-051GH",
        "meta_epoch": "2025-12-06T11:15:07.046784",
        "meta_mean_motion": 14.25471121,
        "meta_eccentricity": 0.0189794,
        "meta_inclination": 86.4729,
        "meta_ra_of_asc_node": 337.163,
        "meta_arg_of_pericenter": 258.5632,
        "meta_mean_anomaly": 256.3943,
        "meta_ephemeris_type": 0,
        "meta_classification_type": "U",
        "meta_norad_cat_id": 34492,
        "meta_element_set_no": 999,
        "meta_rev_at_epoch": 84969,
        "meta_bstar": 0.010564702,
        "meta_mean_motion_dot": 0.00030242,
        "meta_mean_motion_ddot": 0,
        "tle_line1": "1 34492U 97051GH  25340.46883156  .00030242  00000+0  10565-1 0  9997",
        "tle_line2": "2 34492  86.4729 337.1630 0189794 258.5632 256.3943 14.25471121849698"
      },
      "geometry": {
        "type": "Point",
        "coordinates": [
          -32.8277752068387,
          -69.67217041300022
        ]
      }
    },
    {
      "type": "Feature",
      "properties": {
        "norad_id": 34497,
        "name": "IRIDIUM 33 DEB",
        "group": "iridium-33-debris",
        "lat": 46.49659468348683,
        "lon": -129.28236109754025,
        "alt_km": 837.524788824564,
        "timestamp": "2025-12-07T11:27:50.391411+00:00",
        "meta_object_name": "IRIDIUM 33 DEB",
        "meta_object_id": "1997-051GN",
        "meta_epoch": "2025-12-06T11:20:43.375200",
        "meta_mean_motion": 14.27426067,
        "meta_eccentricity": 0.00794495,
        "meta_inclination": 86.2786,
        "meta_ra_of_asc_node": 55.0789,
        "meta_arg_of_pericenter": 359.9883,
        "meta_mean_anomaly": 11.7804,
        "meta_ephemeris_type": 0,
        "meta_classification_type": "U",
        "meta_norad_cat_id": 34497,
        "meta_element_set_no": 999,
        "meta_rev_at_epoch": 86794,
        "meta_bstar": 0.0011602474,
        "meta_mean_motion_dot": 2.96e-05,
        "meta_mean_motion_ddot": 0,
        "tle_line1": "1 34497U 97051GN  25340.47272425  .00002960  00000+0  11602-2 0  9994",
        "tle_line2": "2 34497  86.2786  55.0789 0079449 359.9883  11.7804 14.27426067867942"
      },
      "geometry": {
        "type": "Point",
        "coordinates": [
          -129.28236109754025,
          46.49659468348683
        ]
      }
    },
    {
      "type": "Feature",
      "properties": {
        "norad_id": 34508,
        "name": "IRIDIUM 33 DEB",
        "group": "iridium-33-debris",
        "lat": 82.02442156472323,
        "lon": 131.8090700814938,
        "alt_km": 770.0241751110525,
        "timestamp": "2025-12-07T11:27:50.391422+00:00",
        "meta_object_name": "IRIDIUM 33 DEB",
        "meta_object_id": "1997-051GZ",
        "meta_epoch": "2025-12-06T01:40:58.602144",
        "meta_mean_motion": 14.38332013,
        "meta_eccentricity": 0.00656496,
        "meta_inclination": 86.3709,
        "meta_ra_of_asc_node": 105.4704,
        "meta_arg_of_pericenter": 194.575,
        "meta_mean_anomaly": 165.3557,
        "meta_ephemeris_type": 0,
        "meta_classification_type": "U",
        "meta_norad_cat_id": 34508,
        "meta_element_set_no": 999,
        "meta_rev_at_epoch": 87213,
        "meta_bstar": 0.0029041862,
        "meta_mean_motion_dot": 9.088e-05,
        "meta_mean_motion_ddot": 0,
        "tle_line1": "1 34508U 97051GZ  25340.07012271  .00009088  00000+0  29042-2 0  9999",
        "tle_line2": "2 34508  86.3709 105.4704 0065649 194.5750 165.3557 14.38332013872138"
      },
      "geometry": {
        "type": "Point",
        "coordinates": [
          131.8090700814938,
          82.02442156472323
        ]
      }
    },
    {
      "type": "Feature",
      "properties": {
        "norad_id": 34521,
        "name": "IRIDIUM 33 DEB",
        "group": "iridium-33-debris",
        "lat": 30.203895305296527,
        "lon": -149.24682791230956,
        "alt_km": 681.3310149200252,
        "timestamp": "2025-12-07T11:27:50.391433+00:00",
        "meta_object_name": "IRIDIUM 33 DEB",
        "meta_object_id": "1997-051HN",
        "meta_epoch": "2025-12-06T13:26:47.996736",
        "meta_mean_motion": 14.63284737,
        "meta_eccentricity": 0.00010642,
        "meta_inclination": 86.3802,
        "meta_ra_of_asc_node": 33.2686,
        "meta_arg_of_pericenter": 262.3023,
        "meta_mean_anomaly": 97.8068,
        "meta_ephemeris_type": 0,
        "meta_classification_type": "U",
        "meta_norad_cat_id": 34521,
        "meta_element_set_no": 999,
        "meta_rev_at_epoch": 88382,
        "meta_bstar": 0.0016169867,
        "meta_mean_motion_dot": 8.362e-05,
        "meta_mean_motion_ddot": 0,
        "tle_line1": "1 34521U 97051HN  25340.56027774  .00008362  00000+0  16170-2 0  9994",
        "tle_line2": "2 34521  86.3802  33.2686 0001064 262.3023  97.8068 14.63284737883823"
      },
      "geometry": {
        "type": "Point",
        "coordinates": [
          -149.24682791230956,
          30.203895305296527
        ]
      }
    },
    {
      "type": "Feature",
      "properties": {
        "norad_id": 34525,
        "name": "IRIDIUM 33 DEB",
        "group": "iridium-33-debris",
        "lat": -4.9887133940571795,
        "lon": 48.772811627160245,
        "alt_km": 754.3344281732698,
        "timestamp": "2025-12-07T11:27:50.391443+00:00",
        "meta_object_name": "IRIDIUM 33 DEB",
        "meta_object_id": "1997-051HS",
        "meta_epoch": "2025-12-06T03:59:55.296672",
        "meta_mean_motion": 14.42880527,
        "meta_eccentricity": 0.00065785,
        "meta_inclination": 86.3735,
        "meta_ra_of_asc_node": 49.6493,
        "meta_arg_of_pericenter": 110.3274,
        "meta_mean_anomaly": 279.0864,
        "meta_ephemeris_type": 0,
        "meta_classification_type": "U",
        "meta_norad_cat_id": 34525,
        "meta_element_set_no": 999,
        "meta_rev_at_epoch": 87993,
        "meta_bstar": 0.0007253314,
        "meta_mean_motion_dot": 2.441e-05,
        "meta_mean_motion_ddot": 0,
        "tle_line1": "1 34525U 97051HS  25340.16661223  .00002441  00000+0  72533-3 0  9995",
        "tle_line2": "2 34525  86.3735  49.6493 0006578 110.3274 279.0864 14.42880527879935"
      },
      "geometry": {
        "type": "Point",
        "coordinates": [
          48.772811627160245,
          -4.9887133940571795
        ]
      }
    },
    {
      "type": "Feature",
      "properties": {
        "norad_id": 34529,
        "name": "IRIDIUM 33 DEB",
        "group": "iridium-33-debris",
        "lat": -66.55755902403364,
        "lon": 29.223977748342822,
        "alt_km": 764.2152574257443,
        "timestamp": "2025-12-07T11:27:50.391453+00:00",
        "meta_object_name": "IRIDIUM 33 DEB",
        "meta_object_id": "1997-051HW",
        "meta_epoch": "2025-12-06T15:46:10.737408",
        "meta_mean_motion": 14.4060862,
        "meta_eccentricity": 0.00040518,
        "meta_inclination": 86.3646,
        "meta_ra_of_asc_node": 38.0046,
        "meta_arg_of_pericenter": 197.9871,
        "meta_mean_anomaly": 162.1186,
        "meta_ephemeris_type": 0,
        "meta_classification_type": "U",
        "meta_norad_cat_id": 34529,
        "meta_element_set_no": 999,
        "meta_rev_at_epoch": 88054,
        "meta_bstar": 0.0002277972,
        "meta_mean_motion_dot": 7.46e-06,
        "meta_mean_motion_ddot": 0,
        "tle_line1": "1 34529U 97051HW  25340.65706872  .00000746  00000+0  22780-3 0  9998",
        "tle_line2": "2 34529  86.3646  38.0046 0004051 197.9871 162.1186 14.40608620880542"
      },
      "geometry": {
        "type": "Point",
        "coordinates": [
          29.223977748342822,
          -66.55755902403364
        ]
      }
    },
    {
      "type": "Feature",
      "properties": {
        "norad_id": 34538,
        "name": "IRIDIUM 33 DEB",
        "group": "iridium-33-debris",
        "lat": 85.46311873878905,
        "lon": 132.72722362548708,
        "alt_km": 749.2654159421436,
        "timestamp": "2025-12-07T11:27:50.391463+00:00",
        "meta_object_name": "IRIDIUM 33 DEB",
        "meta_object_id": "1997-051JF",
        "meta_epoch": "2025-12-06T08:27:05.441184",
        "meta_mean_motion": 14.42592523,
        "meta_eccentricity": 0.00336215,
        "meta_inclination": 86.2774,
        "meta_ra_of_asc_node": 8.3539,
        "meta_arg_of_pericenter": 349.5776,
        "meta_mean_anomaly": 21.1302,
        "meta_ephemeris_type": 0,
        "meta_classification_type": "U",
        "meta_norad_cat_id": 34538,
        "meta_element_set_no": 999,
        "meta_rev_at_epoch": 87664,
        "meta_bstar": 0.0017279991,
        "meta_mean_motion_dot": 5.794e-05,
        "meta_mean_motion_ddot": 0,
        "tle_line1": "1 34538U 97051JF  25340.35214631  .00005794  00000+0  17280-2 0  9998",
        "tle_line2": "2 34538  86.2774   8.3539 0033621 349.5776  21.1302 14.42592523876640"
      },
      "geometry": {
        "type": "Point",
        "coordinates": [
          132.72722362548708,
          85.46311873878905
        ]
      }
    }
  ]
}